[{"COMMENT":"GENERATED VIA SPACETRACK.ORG API","ORIGINATOR":"18 SPCS","NORAD_CAT_ID":"43477","OBJECT_NAME":"GRACE-FO 2","OBJECT_TYPE":"PAYLOAD","CLASSIFICATION_TYPE":"U","INTLDES":"18047B","EPOCH":"2023-12-28 11:20:58","EPOCH_MICROSECONDS":"761312","MEAN_MOTION":"15.27707589","ECCENTRICITY":"0.0014497","INCLINATION":"88.9832","RA_OF_ASC_NODE":"322.7004","ARG_OF_PERICENTER":"22.7758","MEAN_ANOMALY":"337.4131","EPHEMERIS_TYPE":"0","ELEMENT_SET_NO":"999","REV_AT_EPOCH":"31164","BSTAR":"0.00017259","MEAN_MOTION_DOT":"0.00004712","MEAN_MOTION_DDOT":"0","FILE":"4147416","TLE_LINE0":"0 GRACE-FO 2","TLE_LINE1":"1 43477U 18047B   23362.47290233  .00004712  00000-0  17259-3 0  9992","TLE_LINE2":"2 43477  88.9832 322.7004 0014497  22.7758 337.4131 15.27707589311647","OBJECT_ID":"2018-047B","OBJECT_NUMBER":"43477","SEMIMAJOR_AXIS":"6860.804","PERIOD":"94.259","APOGEE":"492.615","PERIGEE":"472.723","DECAYED":"0"},{"COMMENT":"GENERATED VIA SPACETRACK.ORG API","ORIGINATOR":"18 SPCS","NORAD_CAT_ID":"43477","OBJECT_NAME":"GRACE-FO 2","OBJECT_TYPE":"PAYLOAD","CLASSIFICATION_TYPE":"U","INTLDES":"18047B","EPOCH":"2023-12-28 14:29:37","EPOCH_MICROSECONDS":"723776","MEAN_MOTION":"15.27708682","ECCENTRICITY":"0.0014473","INCLINATION":"88.9833","RA_OF_ASC_NODE":"322.6825","ARG_OF_PERICENTER":"22.3297","MEAN_ANOMALY":"337.858","EPHEMERIS_TYPE":"0","ELEMENT_SET_NO":"999","REV_AT_EPOCH":"31166","BSTAR":"0.00016825","MEAN_MOTION_DOT":"0.00004594","MEAN_MOTION_DDOT":"0","FILE":"4147674","TLE_LINE0":"0 GRACE-FO 2","TLE_LINE1":"1 43477U 18047B   23362.60390884  .00004594  00000-0  16825-3 0  9996","TLE_LINE2":"2 43477  88.9833 322.6825 0014473  22.3297 337.8580 15.27708682311665","OBJECT_ID":"2018-047B","OBJECT_NUMBER":"43477","SEMIMAJOR_AXIS":"6860.801","PERIOD":"94.259","APOGEE":"492.595","PERIGEE":"472.736","DECAYED":"0"},{"COMMENT":"GENERATED VIA SPACETRACK.ORG API","ORIGINATOR":"18 SPCS","NORAD_CAT_ID":"43477","OBJECT_NAME":"GRACE-FO 2","OBJECT_TYPE":"PAYLOAD","CLASSIFICATION_TYPE":"U","INTLDES":"18047B","EPOCH":"2023-12-28 22:21:15","EPOCH_MICROSECONDS":"99264","MEAN_MOTION":"15.27710873","ECCENTRICITY":"0.0014415","INCLINATION":"88.9834","RA_OF_ASC_NODE":"322.6377","ARG_OF_PERICENTER":"21.1724","MEAN_ANOMALY":"339.0119","EPHEMERIS_TYPE":"0","ELEMENT_SET_NO":"999","REV_AT_EPOCH":"31171","BSTAR":"0.00015266","MEAN_MOTION_DOT":"0.00004172","MEAN_MOTION_DDOT":"0","FILE":"4147928","TLE_LINE0":"0 GRACE-FO 2","TLE_LINE1":"1 43477U 18047B   23362.93142476  .00004172  00000-0  15266-3 0  9994","TLE_LINE2":"2 43477  88.9834 322.6377 0014415  21.1724 339.0119 15.27710873311719","OBJECT_ID":"2018-047B","OBJECT_NUMBER":"43477","SEMIMAJOR_AXIS":"6860.794","PERIOD":"94.259","APOGEE":"492.549","PERIGEE":"472.769","DECAYED":"0"},{"COMMENT":"GENERATED VIA SPACETRACK.ORG API","ORIGINATOR":"18 SPCS","NORAD_CAT_ID":"43477","OBJECT_NAME":"GRACE-FO 2","OBJECT_TYPE":"PAYLOAD","CLASSIFICATION_TYPE":"U","INTLDES":"18047B","EPOCH":"2023-12-29 14:04:29","EPOCH_MICROSECONDS":"712864","MEAN_MOTION":"15.27717209","ECCENTRICITY":"0.0014293","INCLINATION":"88.9836","RA_OF_ASC_NODE":"322.548","ARG_OF_PERICENTER":"18.8988","MEAN_ANOMALY":"341.2789","EPHEMERIS_TYPE":"0","ELEMENT_SET_NO":"999","REV_AT_EPOCH":"31181","BSTAR":"0.00016634","MEAN_MOTION_DOT":"0.00004543","MEAN_MOTION_DDOT":"0","FILE":"4148460","TLE_LINE0":"0 GRACE-FO 2","TLE_LINE1":"1 43477U 18047B   23363.58645501  .00004543  00000-0  16634-3 0  9995","TLE_LINE2":"2 43477  88.9836 322.5480 0014293  18.8988 341.2789 15.27717209311813","OBJECT_ID":"2018-047B","OBJECT_NUMBER":"43477","SEMIMAJOR_AXIS":"6860.775","PERIOD":"94.258","APOGEE":"492.446","PERIGEE":"472.834","DECAYED":"0"},{"COMMENT":"GENERATED VIA SPACETRACK.ORG API","ORIGINATOR":"18 SPCS","NORAD_CAT_ID":"43477","OBJECT_NAME":"GRACE-FO 2","OBJECT_TYPE":"PAYLOAD","CLASSIFICATION_TYPE":"U","INTLDES":"18047B","EPOCH":"2023-12-29 20:21:47","EPOCH_MICROSECONDS":"496960","MEAN_MOTION":"15.27719641","ECCENTRICITY":"0.001425","INCLINATION":"88.9836","RA_OF_ASC_NODE":"322.5122","ARG_OF_PERICENTER":"17.963","MEAN_ANOMALY":"342.212","EPHEMERIS_TYPE":"0","ELEMENT_SET_NO":"999","REV_AT_EPOCH":"31185","BSTAR":"0.00016732","MEAN_MOTION_DOT":"0.0000457","MEAN_MOTION_DDOT":"0","FILE":"4148551","TLE_LINE0":"0 GRACE-FO 2","TLE_LINE1":"1 43477U 18047B   23363.84846640  .00004570  00000-0  16732-3 0  9990","TLE_LINE2":"2 43477  88.9836 322.5122 0014250  17.9630 342.2120 15.27719641311859","OBJECT_ID":"2018-047B","OBJECT_NUMBER":"43477","SEMIMAJOR_AXIS":"6860.768","PERIOD":"94.258","APOGEE":"492.410","PERIGEE":"472.856","DECAYED":"0"},{"COMMENT":"GENERATED VIA SPACETRACK.ORG API","ORIGINATOR":"18 SPCS","NORAD_CAT_ID":"43477","OBJECT_NAME":"GRACE-FO 2","OBJECT_TYPE":"PAYLOAD","CLASSIFICATION_TYPE":"U","INTLDES":"18047B","EPOCH":"2023-12-29 21:56:06","EPOCH_MICROSECONDS":"938880","MEAN_MOTION":"15.2771976","ECCENTRICITY":"0.0014239","INCLINATION":"88.9837","RA_OF_ASC_NODE":"322.5033","ARG_OF_PERICENTER":"17.7262","MEAN_ANOMALY":"342.4481","EPHEMERIS_TYPE":"0","ELEMENT_SET_NO":"999","REV_AT_EPOCH":"31186","BSTAR":"0.0001594","MEAN_MOTION_DOT":"0.00004355","MEAN_MOTION_DDOT":"0","FILE":"4148761","TLE_LINE0":"0 GRACE-FO 2","TLE_LINE1":"1 43477U 18047B   23363.91396920  .00004355  00000-0  15940-3 0  9990","TLE_LINE2":"2 43477  88.9837 322.5033 0014239  17.7262 342.4481 15.27719760311862","OBJECT_ID":"2018-047B","OBJECT_NUMBER":"43477","SEMIMAJOR_AXIS":"6860.768","PERIOD":"94.258","APOGEE":"492.402","PERIGEE":"472.864","DECAYED":"0"},{"COMMENT":"GENERATED VIA SPACETRACK.ORG API","ORIGINATOR":"18 SPCS","NORAD_CAT_ID":"43477","OBJECT_NAME":"GRACE-FO 2","OBJECT_TYPE":"PAYLOAD","CLASSIFICATION_TYPE":"U","INTLDES":"18047B","EPOCH":"2023-12-30 13:39:21","EPOCH_MICROSECONDS":"234528","MEAN_MOTION":"15.27725364","ECCENTRICITY":"0.0014108","INCLINATION":"88.9838","RA_OF_ASC_NODE":"322.4136","ARG_OF_PERICENTER":"15.3421","MEAN_ANOMALY":"344.8253","EPHEMERIS_TYPE":"0","ELEMENT_SET_NO":"999","REV_AT_EPOCH":"31196","BSTAR":"0.00016187","MEAN_MOTION_DOT":"0.00004423","MEAN_MOTION_DDOT":"0","FILE":"4149332","TLE_LINE0":"0 GRACE-FO 2","TLE_LINE1":"1 43477U 18047B   23364.56899577  .00004423  00000-0  16187-3 0  9998","TLE_LINE2":"2 43477  88.9838 322.4136 0014108  15.3421 344.8253 15.27725364311963","OBJECT_ID":"2018-047B","OBJECT_NUMBER":"43477","SEMIMAJOR_AXIS":"6860.751","PERIOD":"94.258","APOGEE":"492.295","PERIGEE":"472.937","DECAYED":"0"},{"COMMENT":"GENERATED VIA SPACETRACK.ORG API","ORIGINATOR":"18 SPCS","NORAD_CAT_ID":"43477","OBJECT_NAME":"GRACE-FO 2","OBJECT_TYPE":"PAYLOAD","CLASSIFICATION_TYPE":"U","INTLDES":"18047B","EPOCH":"2023-12-30 21:30:58","EPOCH_MICROSECONDS":"294656","MEAN_MOTION":"15.27727674","ECCENTRICITY":"0.0014029","INCLINATION":"88.9838","RA_OF_ASC_NODE":"322.3689","ARG_OF_PERICENTER":"14.1618","MEAN_ANOMALY":"346.0022","EPHEMERIS_TYPE":"0","ELEMENT_SET_NO":"999","REV_AT_EPOCH":"31201","BSTAR":"0.0001499","MEAN_MOTION_DOT":"0.00004098","MEAN_MOTION_DDOT":"0","FILE":"4149598","TLE_LINE0":"0 GRACE-FO 2","TLE_LINE1":"1 43477U 18047B   23364.89650804  .00004098  00000-0  14990-3 0  9990","TLE_LINE2":"2 43477  88.9838 322.3689 0014029  14.1618 346.0022 15.27727674312013","OBJECT_ID":"2018-047B","OBJECT_NUMBER":"43477","SEMIMAJOR_AXIS":"6860.744","PERIOD":"94.258","APOGEE":"492.234","PERIGEE":"472.984","DECAYED":"0"},{"COMMENT":"GENERATED VIA SPACETRACK.ORG API","ORIGINATOR":"18 SPCS","NORAD_CAT_ID":"43477","OBJECT_NAME":"GRACE-FO 2","OBJECT_TYPE":"PAYLOAD","CLASSIFICATION_TYPE":"U","INTLDES":"18047B","EPOCH":"2023-12-31 02:13:56","EPOCH_MICROSECONDS":"510688","MEAN_MOTION":"15.27729233","ECCENTRICITY":"0.0013978","INCLINATION":"88.9838","RA_OF_ASC_NODE":"322.342","ARG_OF_PERICENTER":"13.4609","MEAN_ANOMALY":"346.701","EPHEMERIS_TYPE":"0","ELEMENT_SET_NO":"999","REV_AT_EPOCH":"31204","BSTAR":"0.00014998","MEAN_MOTION_DOT":"0.000041","MEAN_MOTION_DDOT":"0","FILE":"4149639","TLE_LINE0":"0 GRACE-FO 2","TLE_LINE1":"1 43477U 18047B   23365.09301517  .00004100  00000-0  14998-3 0  9999","TLE_LINE2":"2 43477  88.9838 322.3420 0013978  13.4609 346.7010 15.27729233312040","OBJECT_ID":"2018-047B","OBJECT_NUMBER":"43477","SEMIMAJOR_AXIS":"6860.739","PERIOD":"94.258","APOGEE":"492.194","PERIGEE":"473.014","DECAYED":"0"},{"COMMENT":"GENERATED VIA SPACETRACK.ORG API","ORIGINATOR":"18 SPCS","NORAD_CAT_ID":"43477","OBJECT_NAME":"GRACE-FO 2","OBJECT_TYPE":"PAYLOAD","CLASSIFICATION_TYPE":"U","INTLDES":"18047B","EPOCH":"2023-12-31 21:05:49","EPOCH_MICROSECONDS":"202880","MEAN_MOTION":"15.27735217","ECCENTRICITY":"0.0013799","INCLINATION":"88.9838","RA_OF_ASC_NODE":"322.2346","ARG_OF_PERICENTER":"10.5796","MEAN_ANOMALY":"349.5741","EPHEMERIS_TYPE":"0","ELEMENT_SET_NO":"999","REV_AT_EPOCH":"31216","BSTAR":"0.0001375","MEAN_MOTION_DOT":"0.00003762","MEAN_MOTION_DDOT":"0","FILE":"4150400","TLE_LINE0":"0 GRACE-FO 2","TLE_LINE1":"1 43477U 18047B   23365.87904170  .00003762  00000-0  13750-3 0  9997","TLE_LINE2":"2 43477  88.9838 322.2346 0013799  10.5796 349.5741 15.27735217312166","OBJECT_ID":"2018-047B","OBJECT_NUMBER":"43477","SEMIMAJOR_AXIS":"6860.721","PERIOD":"94.257","APOGEE":"492.053","PERIGEE":"473.119","DECAYED":"0"}]